{
    "links": {
        "self": "http://www.neowsapp.com/rest/v1/neo/54051063?api_key=iIulBulltgU6a56xZRHN4H3l9WmuAYTsLGpBGhQ2"
    },
    "id": "54051063",
    "neo_reference_id": "54051063",
    "name": "(2020 PF3)",
    "designation": "2020 PF3",
    "nasa_jpl_url": "http://ssd.jpl.nasa.gov/sbdb.cgi?sstr=54051063",
    "absolute_magnitude_h": 25.806,
    "estimated_diameter": {
        "kilometers": {
            "estimated_diameter_min": 0.018338127,
            "estimated_diameter_max": 0.0410052986
        },
        "meters": {
            "estimated_diameter_min": 18.3381270217,
            "estimated_diameter_max": 41.0052986004
        },
        "miles": {
            "estimated_diameter_min": 0.0113947803,
            "estimated_diameter_max": 0.0254795034
        },
        "feet": {
            "estimated_diameter_min": 60.1644606577,
            "estimated_diameter_max": 134.5318238603
        }
    },
    "is_potentially_hazardous_asteroid": false,
    "close_approach_data": [
        {
            "close_approach_date": "2020-08-26",
            "close_approach_date_full": "2020-Aug-26 15:07",
            "epoch_date_close_approach": 1598454420000,
            "relative_velocity": {
                "kilometers_per_second": "9.5761471386",
                "kilometers_per_hour": "34474.1296989775",
                "miles_per_hour": "21420.8835343452"
            },
            "miss_distance": {
                "astronomical": "0.0165000127",
                "lunar": "6.4185049403",
                "kilometers": "2468366.754892949",
                "miles": "1533771.9795387362"
            },
            "orbiting_body": "Earth"
        },
        {
            "close_approach_date": "2024-07-15",
            "close_approach_date_full": "2024-Jul-15 12:51",
            "epoch_date_close_approach": 1721047860000,
            "relative_velocity": {
                "kilometers_per_second": "22.9631201603",
                "kilometers_per_hour": "82667.2325772262",
                "miles_per_hour": "51366.2034866659"
            },
            "miss_distance": {
                "astronomical": "0.4635088932",
                "lunar": "180.3049594548",
                "kilometers": "69339943.148777484",
                "miles": "43085842.7555739192"
            },
            "orbiting_body": "Earth"
        }
    ],
    "orbital_data": {
        "orbit_id": "12",
        "orbit_determination_date": "2020-10-26 09:35:24",
        "first_observation_date": "2020-08-14",
        "last_observation_date": "2020-08-26",
        "data_arc_in_days": 12,
        "observations_used": 87,
        "orbit_uncertainty": "7",
        "minimum_orbit_intersection": ".0159531",
        "jupiter_tisserand_invariant": "3.189",
        "epoch_osculation": "2459000.5",
        "eccentricity": ".6014761599174628",
        "semi_major_axis": "2.490623128550169",
        "inclination": "5.91592872363641",
        "ascending_node_longitude": "328.2836987400351",
        "orbital_period": "1435.689261441631",
        "perihelion_distance": ".9925726933881958",
        "perihelion_argument": "28.45075407422167",
        "aphelion_distance": "3.988673563712141",
        "perihelion_time": "2459106.678665090107",
        "mean_anomaly": "333.3756318591838",
        "mean_motion": ".2507506392006514",
        "equinox": "J2000",
        "orbit_class": {
            "orbit_class_type": "APO",
            "orbit_class_description": "Near-Earth asteroid orbits which cross the Earth’s orbit similar to that of 1862 Apollo",
            "orbit_class_range": "a (semi-major axis) > 1.0 AU; q (perihelion) < 1.017 AU"
        }
    },
    "is_sentry_object": false
}